NORAD_CAT_ID,OBJECT_NAME,OBJECT_TYPE,EPOCH,MEAN_MOTION,ECCENTRICITY,INCLINATION,RA_OF_ASC_NODE,ARG_OF_PERICENTER,MEAN_ANOMALY,BSTAR,MEAN_MOTION_DOT,MEAN_MOTION_DDOT,TLE_LINE0,TLE_LINE1,TLE_LINE2,SEMIMAJOR_AXIS,PERIOD,APOGEE,PERIGEE,DECAYED
51866.0,STARLINK-3553,PAYLOAD,2024-05-02 09:14:39,15.08840837,0.0001571,53.2169,165.0266,91.6724,268.4448,1.7771e-05,-5e-08,0.0,0 STARLINK-3553,1 51866U 22022Q   24123.38518300 -.00000005  00000-0  17771-4 0  9997,2 51866  53.2169 165.0266 0001571  91.6724 268.4448 15.08840837121018,6917.878,95.438,540.83,538.656,0.0
51866.0,STARLINK-3553,PAYLOAD,2024-05-03 12:16:12,15.08851601,0.0001578,53.2166,159.9707,92.5788,267.5385,0.00019008,2.739e-05,0.0,0 STARLINK-3553,1 51866U 22022Q   24124.51125163  .00002739  00000-0  19008-3 0  9993,2 51866  53.2166 159.9707 0001578  92.5788 267.5385 15.08851601121183,6917.845,95.437,540.802,538.618,0.0
51866.0,STARLINK-3553,PAYLOAD,2024-05-04 05:45:28,15.08830353,0.0002135,53.2157,156.7003,124.3659,235.7536,0.00010945,1.454e-05,0.0,0 STARLINK-3553,1 51866U 22022Q   24125.23991709  .00001454  00000-0  10945-3 0  9994,2 51866  53.2157 156.7003 0002135 124.3659 235.7536 15.08830353121296,6917.91,95.438,541.252,538.298,0.0
51866.0,STARLINK-3553,PAYLOAD,2024-05-05 02:25:29,15.08846574,0.0001353,53.2154,152.8339,90.9688,269.1459,0.00047877,7.341e-05,0.0,0 STARLINK-3553,1 51866U 22022Q   24126.10103853  .00007341  00000-0  47877-3 0  9991,2 51866  53.2154 152.8339 0001353  90.9688 269.1459 15.08846574121425,6917.86,95.437,540.661,538.789,0.0
51866.0,STARLINK-3553,PAYLOAD,2024-05-05 08:47:02,15.08852158,0.0001311,53.2154,151.6441,89.2072,270.907,0.00057759,8.919e-05,0.0,0 STARLINK-3553,1 51866U 22022Q   24126.36599687  .00008919  00000-0  57759-3 0  9995,2 51866  53.2154 151.6441 0001311  89.2072 270.9070 15.08852158121466,6917.843,95.437,540.615,538.801,0.0
51866.0,STARLINK-3553,PAYLOAD,2024-05-05 18:19:20,15.08860448,0.0001311,53.2153,149.8601,89.6774,270.4368,0.00065074,0.00010089,0.0,0 STARLINK-3553,1 51866U 22022Q   24126.76343256  .00010089  00000-0  65074-3 0  9998,2 51866  53.2153 149.8601 0001311  89.6774 270.4368 15.08860448121528,6917.818,95.436,540.59,538.776,0.0
51866.0,STARLINK-3553,PAYLOAD,2024-05-06 05:27:02,15.0886054,0.000139,53.2156,147.7799,93.896,266.2191,0.00028387,4.235e-05,0.0,0 STARLINK-3553,1 51866U 22022Q   24127.22710714  .00004235  00000-0  28387-3 0  9999,2 51866  53.2156 147.7799 0001390  93.8960 266.2191 15.08860540121594,6917.818,95.436,540.644,538.721,0.0
51866.0,STARLINK-3553,PAYLOAD,2024-05-06 08:37:48,15.08861021,0.0001387,53.2155,147.1852,93.8067,266.3084,0.00026245,3.894e-05,0.0,0 STARLINK-3553,1 51866U 22022Q   24127.35958518  .00003894  00000-0  26245-3 0  9990,2 51866  53.2155 147.1852 0001387  93.8067 266.3084 15.08861021121611,6917.816,95.436,540.641,538.722,0.0
51866.0,STARLINK-3553,PAYLOAD,2024-05-06 18:10:06,15.08862525,0.0001372,53.2152,145.401,93.6371,266.4778,0.00022234,3.255e-05,0.0,0 STARLINK-3553,1 51866U 22022Q   24127.75701986  .00003255  00000-0  22234-3 0  9994,2 51866  53.2152 145.4010 0001372  93.6371 266.4778 15.08862525121672,6917.812,95.436,540.626,538.727,0.0
51866.0,STARLINK-3553,PAYLOAD,2024-05-07 05:17:48,15.08846422,0.0001661,53.2173,143.3207,95.7306,264.3876,-0.0001261,-2.295e-05,0.0,0 STARLINK-3553,1 51866U 22022Q   24128.22070235 -.00002295  00000-0 -12610-3 0  9995,2 51866  53.2173 143.3207 0001661  95.7306 264.3876 15.08846422121744,6917.861,95.437,540.875,538.577,0.0
51866.0,STARLINK-3553,PAYLOAD,2024-05-07 10:03:58,15.08847058,0.0001603,53.2182,142.4283,95.8391,264.2784,-2.0664e-05,-6.17e-06,0.0,0 STARLINK-3553,1 51866U 22022Q   24128.41942842 -.00000617  00000-0 -20664-4 0  9993,2 51866  53.2182 142.4283 0001603  95.8391 264.2784 15.08847058121775,6917.859,95.437,540.833,538.615,0.0
51866.0,STARLINK-3553,PAYLOAD,2024-05-08 05:08:35,15.08844738,0.0001523,53.2176,138.8561,87.9937,272.123,2.4262e-06,-2.49e-06,0.0,0 STARLINK-3553,1 51866U 22022Q   24129.21430554 -.00000249  00000-0  24262-5 0  9993,2 51866  53.2176 138.8561 0001523  87.9937 272.1230 15.08844738121894,6917.866,95.437,540.784,538.677,0.0
51866.0,STARLINK-3553,PAYLOAD,2024-05-08 08:19:22,15.08850765,0.0001431,53.2171,138.263,90.1508,269.9648,-0.0001242,-2.265e-05,0.0,0 STARLINK-3553,1 51866U 22022Q   24129.34678437 -.00002265  00000-0 -12420-3 0  9993,2 51866  53.2171 138.2630 0001431  90.1508 269.9648 15.08850765121915,6917.847,95.437,540.702,538.723,0.0
51866.0,STARLINK-3553,PAYLOAD,2024-05-08 17:51:40,15.08845654,0.0001445,53.217,136.4785,90.7522,269.3636,-2.3135e-05,-6.56e-06,0.0,0 STARLINK-3553,1 51866U 22022Q   24129.74422356 -.00000656  00000-0 -23135-4 0  9992,2 51866  53.2170 136.4785 0001445  90.7522 269.3636 15.08845654121970,6917.863,95.437,540.728,538.728,0.0
51866.0,STARLINK-3553,PAYLOAD,2024-05-09 06:34:45,15.08845326,0.0001317,53.2164,134.0984,92.2118,267.9025,0.00012837,1.756e-05,0.0,0 STARLINK-3553,1 51866U 22022Q   24130.27413837  .00001756  00000-0  12837-3 0  9992,2 51866  53.2164 134.0984 0001317  92.2118 267.9025 15.08845326122056,6917.864,95.437,540.64,538.818,0.0
51866.0,STARLINK-3553,PAYLOAD,2024-05-09 17:42:27,15.08849715,0.0001316,53.2168,132.0171,92.2459,267.8684,0.00014613,2.039e-05,0.0,0 STARLINK-3553,1 51866U 22022Q   24130.73781513  .00002039  00000-0  14613-3 0  9991,2 51866  53.2168 132.0171 0001316  92.2459 267.8684 15.08849715122127,6917.851,95.437,540.626,538.805,0.0
51866.0,STARLINK-3553,PAYLOAD,2024-05-10 04:50:10,15.08837412,0.0001535,53.2164,129.9343,107.6869,252.4291,4.518e-05,4.31e-06,0.0,0 STARLINK-3553,1 51866U 22022Q   24131.20150628  .00000431  00000-0  45180-4 0  9999,2 51866  53.2164 129.9343 0001535 107.6869 252.4291 15.08837412122190,6917.888,95.438,540.815,538.691,0.0
51866.0,STARLINK-3553,PAYLOAD,2024-05-10 06:25:33,15.08835858,0.0001372,53.2167,129.6382,97.6499,262.4649,3.788e-05,3.15e-06,0.0,0 STARLINK-3553,1 51866U 22022Q   24131.26774799  .00000315  00000-0  37880-4 0  9995,2 51866  53.2167 129.6382 0001372  97.6499 262.4649 15.08835858122201,6917.893,95.438,540.707,538.809,0.0
51866.0,STARLINK-3553,PAYLOAD,2024-05-11 04:40:56,15.08848709,0.0001428,53.2162,125.4748,98.7784,261.3369,9.2066e-05,1.178e-05,0.0,0 STARLINK-3553,1 51866U 22022Q   24132.19510106  .00001178  00000-0  92066-4 0  9993,2 51866  53.2162 125.4748 0001428  98.7784 261.3369 15.08848709122348,6917.854,95.437,540.707,538.731,0.0
51866.0,STARLINK-3553,PAYLOAD,2024-05-11 06:16:19,15.08852247,0.0001414,53.2156,125.1765,98.6148,261.5005,0.0001648,2.337e-05,0.0,0 STARLINK-3553,1 51866U 22022Q   24132.26133895  .00002337  00000-0  16480-3 0  9990,2 51866  53.2156 125.1765 0001414  98.6148 261.5005 15.08852247122357,6917.843,95.437,540.686,538.73,0.0
51866.0,STARLINK-3553,PAYLOAD,2024-05-12 04:31:44,15.08828819,0.000151,53.2159,121.0135,44.626,315.4853,-0.00019595,-3.404e-05,0.0,0 STARLINK-3553,1 51866U 22022Q   24133.18870623 -.00003404  00000-0 -19595-3 0  9997,2 51866  53.2159 121.0135 0001510  44.6260 315.4853 15.08828819122492,6917.915,95.438,540.824,538.735,0.0
51866.0,STARLINK-3553,PAYLOAD,2024-05-12 06:07:07,15.08833131,0.0001342,53.2157,120.7157,76.0667,284.0474,-0.00027043,-4.588e-05,0.0,0 STARLINK-3553,1 51866U 22022Q   24133.25494230 -.00004588  00000-0 -27043-3 0  9992,2 51866  53.2157 120.7157 0001342  76.0667 284.0474 15.08833131122508,6917.901,95.438,540.695,538.838,0.0
51866.0,STARLINK-3553,PAYLOAD,2024-05-12 22:00:59,15.08824972,0.0001418,53.216,117.7441,71.8357,288.2789,0.00049257,7.557e-05,0.0,0 STARLINK-3553,1 51866U 22022Q   24133.91735077  .00007557  00000-0  49257-3 0  9990,2 51866  53.2160 117.7441 0001418  71.8357 288.2789 15.08824972122606,6917.926,95.439,540.772,538.81,0.0
51866.0,STARLINK-3553,PAYLOAD,2024-05-13 05:57:54,15.08829353,0.0001417,53.2161,116.2575,73.7021,286.4126,0.00047284,7.243e-05,0.0,0 STARLINK-3553,1 51866U 22022Q   24134.24855319  .00007243  00000-0  47284-3 0  9999,2 51866  53.2161 116.2575 0001417  73.7021 286.4126 15.08829353122655,6917.913,95.438,540.758,538.798,0.0
51866.0,STARLINK-3553,PAYLOAD,2024-05-13 07:33:18,15.08831779,0.0001436,53.2162,115.96,73.8863,286.2287,0.00054156,8.34e-05,0.0,0 STARLINK-3553,1 51866U 22022Q   24134.31479348  .00008340  00000-0  54156-3 0  9996,2 51866  53.2162 115.9600 0001436  73.8863 286.2287 15.08831779122669,6917.906,95.438,540.764,538.777,0.0
51866.0,STARLINK-3553,PAYLOAD,2024-05-13 15:30:13,15.08836808,0.0001434,53.2161,114.4733,74.6491,285.4659,0.00048899,7.502e-05,0.0,0 STARLINK-3553,1 51866U 22022Q   24134.64599400  .00007502  00000-0  48899-3 0  9990,2 51866  53.2161 114.4733 0001434  74.6491 285.4659 15.08836808122711,6917.89,95.438,540.747,538.763,0.0
51866.0,STARLINK-3553,PAYLOAD,2024-05-14 07:24:05,15.08847854,0.0001446,53.2159,111.4998,75.9537,284.1616,0.00050608,7.777e-05,0.0,0 STARLINK-3553,1 51866U 22022Q   24135.30839221  .00007777  00000-0  50608-3 0  9997,2 51866  53.2159 111.4998 0001446  75.9537 284.1616 15.08847854122819,6917.856,95.437,540.722,538.721,0.0
51866.0,STARLINK-3553,PAYLOAD,2024-05-14 15:21:00,15.08852029,0.0001444,53.2158,110.0129,76.3253,283.7899,0.00048725,7.478e-05,0.0,0 STARLINK-3553,1 51866U 22022Q   24135.63959023  .00007478  00000-0  48725-3 0  9991,2 51866  53.2158 110.0129 0001444  76.3253 283.7899 15.08852029122860,6917.844,95.437,540.708,538.71,0.0
51866.0,STARLINK-3553,PAYLOAD,2024-05-15 05:39:28,15.08849427,0.0001534,53.2163,107.3373,76.6826,283.4337,0.00026827,3.985e-05,0.0,0 STARLINK-3553,1 51866U 22022Q   24136.23574919  .00003985  00000-0  26827-3 0  9993,2 51866  53.2163 107.3373 0001534  76.6826 283.4337 15.08849427122957,6917.852,95.437,540.778,538.655,0.0
51866.0,STARLINK-3553,PAYLOAD,2024-05-15 07:14:51,15.08850489,0.0001534,53.2163,107.0399,76.5983,283.518,0.00028043,4.179e-05,0.0,0 STARLINK-3553,1 51866U 22022Q   24136.30198858  .00004179  00000-0  28043-3 0  9993,2 51866  53.2163 107.0399 0001534  76.5983 283.5180 15.08850489122963,6917.848,95.437,540.775,538.652,0.0
